COSMOS 2425 (716)       
1 29670U 06062A   17299.53328347  .00000017  00000-0  10000-3 0  9993
2 29670  65.3964 300.4312 0020916 337.5684 121.3093  2.13104945 84332
COSMOS 2426 (717)       
1 29671U 06062B   17299.73577508  .00000018  00000-0  10000-3 0  9992
2 29671  65.4146 300.5175 0018289 174.5059 297.0929  2.13102982 84348
COSMOS 2433 (720)       
1 32275U 07052A   17300.10643047 -.00000010  00000-0  10000-3 0  9995
2 32275  65.5775  61.1917 0002055 214.5913 155.8851  2.13104719 77867
COSMOS 2432 (719)       
1 32276U 07052B   17299.75259977 -.00000010  00000-0  10000-3 0  9999
2 32276  65.5897  61.2780 0009448 339.6370  71.9659  2.13103916 77852
COSMOS 2434 (721)       
1 32393U 07065A   17300.23653531  .00000021  00000-0  00000+0 0  9999
2 32393  65.0128 299.4931 0002826 160.1295 199.1206  2.13102919 76563
COSMOS 2436 (723)       
1 32395U 07065C   17299.77297966  .00000018  00000-0  10000-3 0  9994
2 32395  65.0227 299.5577 0013933 349.0260  63.9465  2.13104286 76499
COSMOS 2456 (730)       
1 36111U 09070A   17300.25725646  .00000018  00000-0  00000+0 0  9994
2 36111  64.1793 179.0620 0003972 324.1085 222.6008  2.13102959 61237
COSMOS 2457 (733)       
1 36112U 09070B   17300.04737770  .00000017  00000-0  00000+0 0  9992
2 36112  64.1619 178.9855 0006272 160.5702 353.0946  2.13101678 61234
COSMOS 2458 (734)       
1 36113U 09070C   17299.91777453  .00000016  00000-0  10000-3 0  9992
2 36113  64.1657 178.9995 0001967  30.0825  72.2392  2.13101870 61234
COSMOS 2459 (731)       
1 36400U 10007A   17299.83054022 -.00000012  00000-0  10000-3 0  9991
2 36400  65.4858  60.2915 0025592 355.0543  24.7242  2.13102118 59589
COSMOS 2461 (735)       
1 36401U 10007B   17300.05884931 -.00000012  00000-0  10000-3 0  9999
2 36401  65.4780  60.2605 0007625  81.3988  24.1459  2.13102111 59586
COSMOS 2460 (732)       
1 36402U 10007C   17299.71565404 -.00000012  00000-0  10000-3 0  9991
2 36402  65.4696  60.2433 0001888 126.2555 117.0324  2.13101695 59574
COSMOS 2464 (736)       
1 37139U 10041C   17299.73397005  .00000017  00000-0  00000+0 0  9998
2 37139  64.6177 299.4324 0021653   5.9075 195.5312  2.13102655 55643
COSMOS 2471 (701K)      
1 37372U 11009A   17299.74208395 -.00000012  00000-0  00000-0 0  9993
2 37372  65.4672  60.1888 0007957 222.7546 179.7559  2.13107673 51853
COSMOS 2474 (742)       
1 37829U 11055A   17299.58288927  .00000014  00000-0  00000-0 0  9993
2 37829  64.5028 179.7053 0007748 247.5973   0.9492  2.13101907 47213
COSMOS 2476 (744)       
1 37867U 11064A   17300.42808098  .00000018  00000-0  00000+0 0  9991
2 37867  64.4835 179.7445 0017118 242.0291 340.8928  2.13101979 46588
COSMOS 2477 (745)       
1 37868U 11064B   17300.13619369  .00000016  00000-0  00000+0 0  9999
2 37868  64.4921 179.8001 0015080 243.4029 294.6547  2.13101887 46530
COSMOS 2475 (743)       
1 37869U 11064C   17300.19730623  .00000017  00000-0  00000+0 0  9994
2 37869  64.4989 179.7910 0019604 270.4503 271.0228  2.13102194 46544
COSMOS 2485 (747)       
1 39155U 13019A   17300.11742282  .00000016  00000-0  00000+0 0  9991
2 39155  64.6529 179.8129 0017654 236.5686 153.0146  2.13102038 35056
COSMOS 2492 (754)       
1 39620U 14012A   17300.04907075 -.00000012  00000-0  10000-3 0  9999
2 39620  65.3596  60.1502 0012816 333.1375  38.4091  2.13103365 28002
COSMOS 2500 (755)       
1 40001U 14032A   17299.77550476 -.00000013  00000-0  00000-0 0  9999
2 40001  65.3004  60.1471 0006759 190.2068 194.2467  2.13102702 26219
COSMOS 2501 (702K)      
1 40315U 14075A   17300.48164458  .00000020  00000-0  00000+0 0  9992
2 40315  64.3427 300.7025 0016970 212.7898 157.7705  2.13098529 22632
COSMOS 2514 (751)       
1 41330U 16008A   17299.61691591 -.00000013  00000-0  00000+0 0  9996
2 41330  65.1003  60.2627 0009725 204.8916 238.2186  2.13103324 13377
COSMOS 2516 (753)       
1 41554U 16032A   17300.22304571  .00000019  00000-0  00000+0 0  9995
2 41554  64.5630 300.5117 0014638 225.3473 214.7107  2.13101653 10993
COSMOS 2522 (752)       
1 42939U 17055A   17300.00418029  .00000018  00000-0  00000+0 0  9998
2 42939  64.7932 300.4177 0010311 249.7846 248.7255  2.13101891   748
